# Made by eph2tle, compiled Oct 27 2021 19:47:50
# Run at Fri Oct 29 21:26:26 2021
#
# No updates
#
#    The following TLEs (Two-Line Elements) were generated by fitting
# a numerically-integrated ephemeris,  based on the orbit given below,
# to the SDP4/SGP4 models.  Each TLE is good for the interval between
# its epoch and the epoch of the subsequent TLE (usually one day).
# The maximum deviation between the numerically integrated ephemerides
# and the TLE-based ephemeris, in kilometers,  is given for each TLE
# as the "worst residual".
#
#    This fitting is done using the 'eph2tle' code packaged with Find_Orb.
# The code has details on how the TLEs were computed :
#
#    https://github.com/Bill-Gray/find_orb/eph2tle.cpp
#
#    Be warned:  the error given is that between the numerically
# integrated ephems and the TLE model.  There will usually be at
# least some additional difference between the ephems and the actual
# motion of the satellite,  especially if the ephemerides are based
# on a short arc.  If the following orbital elements say something
# like "[based on] 10 observations 2015 Jan. 1-13",  and the TLEs
# are for 2015 May,  the extrapolation may be tenuous at best.  If
# your application requires a specific level of accuracy,  you may
# want to contact me;  I can give you some idea as to the fit of the
# underlying data (and possibly TLEs based on newer data).
#
#   You can usually find the underlying observational data,  and the
# fitted orbit,  residuals,  ephemerides,  and sometimes some comments
# about the object,  among the pages listed at
#
#    https://www.projectpluto.com/pluto/mpecs/pseudo.htm
#
#    WARNING:  for this object,  "normal" TLEs cannot be fitted.  (This
# usually means an object with an hyperbolic or nearly-parabolic orbit.)
# For this and similar cases,   an alternative model is used,  in which
# most of the traditional TLE data is replaced by six signed 8-digit hex
# numbers.  These six numbers are a state vector,  numerically integrated
# using a simplified force model.  This is necessary for objects at L2 or
# L1,  and sometimes for objects in high orbits where the SDP4/SGP4 model
# fails.  I'll be posting source code for this.  But be aware:  it's my
# own extension,  doesn't work with other code,  and is therefore used
# only when necessary.
#
#    Also,  if you use a TLE outside the "correct" time range (between
# its MJD and that of the next TLE),  all bets are off.  I've carefully
# computed and minimized the worst error over the "correct" time frame,
# but the ephemeris may (or may not) diverge wildly outside of it.
#
# Ephem range: 59468.000000 59580.000000 1.000000
# Created Fri Oct 29 21:26:24 2021
# Ephemeris start: 11 Sep 2021  0:00:00
# Ephemeris end:    1 Jan 2022  0:00:00
# Times are all TDT
# Positions/velocities are in ecliptic J2000
# Orbital elements:  Change5
#    Perigee 2021 Oct 22.38796 +/- 2.69e-5 TT =  9:18:39 (JD 2459509.88796)
# Epoch 2021 Oct 26.0 TT; AMR 0.017037 +/- 0.000139 m^2/kg      Find_Orb
# M  66.36812572 +/- 0.00052          (J2000 equator)
# n  18.37413010 +/- 1.06e-5          Peri.  214.72895 +/- 0.00041
# a306995.715 +/- 0.118               Node    26.88209 +/- 0.00018
# e   0.2359714 +/- 1.19e-6           Incl.   32.87816 +/- 0.000035
# P  19.59d                  H 29.0   G  0.15   U  5.1
# q 234553.503 +/- 0.312    Q 379437.927 +/- 0.478
# 90 of 140 observations 2021 Sept. 18-Oct. 29; mean residual 0".517
#
# After 2021 Nov 4 :
#
# Orbital elements:  Change5
#    Perilune 2021 Nov 18.010947 +/- 5.61e-5 TT =  0:15:45.8 (JD 2459536.510947)
# Epoch 2021 Nov 19.0 TT = JDT 2459537.5                        Find_Orb
# M   3.054590686 +/- 0.00034         (J2000 ecliptic)
# n   3.088399020 +/- 0.000464        Peri.   16.543598 +/- 0.00058
# a232675.1704 +/- 23.3               Node     1.615211 +/- 0.0038
# e   0.97610717 +/- 4.5e-6           Incl.   55.475024 +/- 0.007
# P 116.56d                  H 28.9   G  0.15   U  7.6
# q 5559.266417 +/- 0.521    Q 459791.0745 +/- 47
# 16 of 87 observations 2021 Nov. 4-19; mean residual 0".399
#
# 1 NoradU COSPAR   Epoch.epoch     dn/dt/2  d2n/dt2/6 BSTAR    T El# C
# 2 NoradU Inclina RAAscNode Eccent  ArgPeri MeanAno  MeanMotion Rev# C

# Worst residual: 281.33 km
# MJD 59468.000000 (2021 Sep 11  0:00)
Change5
1 47097U 20087A   21253.99919926 -005FD438 -003NY9LC -001P9GISH 13999
2 47097                          +0005VO41 -0005LZRJ -0000Y0IU     06

# Worst residual: 2340.42 km
# MJD 59469.000000 (2021 Sep 12  0:00)
Change5
1 47097U 20087A   21254.99919926 -003PVP9S -004VLBRS -001U9SPTH 13994
2 47097                          +0008UQYH -0003U05U -0000BEEZ     07

# Worst residual: 170.59 km
# MJD 59470.000000 (2021 Sep 13  0:00)
Change5
1 47097U 20087A   21255.99919926 -001LL92R -0054FGUA -0025MFQIH 13997
2 47097                          +0007V61L +0000G1K8 -0001V50F     09

# Worst residual: 38.72 km
# MJD 59471.000000 (2021 Sep 14  0:00)
Change5
1 47097U 20087A   21256.99919926 +0006TF52 -004VDJAP -002JILD8H 13996
2 47097                          +00075VYT +0001OMNU -00018WEE     02

# Worst residual: 11.70 km
# MJD 59472.000000 (2021 Sep 15  0:00)
Change5
1 47097U 20087A   21257.99919926 +001U5WMR -004AWHLM -002QCPSGH 13992
2 47097                          +0006IPDO +00031W8E -0000BB5H     03

# Worst residual: 5.05 km
# MJD 59473.000000 (2021 Sep 16  0:00)
Change5
1 47097U 20087A   21258.99919926 +003ABUJT -003F3CHQ -002OU4IBH 13996
2 47097                          +0005HLR3 +00049HW0 +0000NPZA     00

# Worst residual: 2.82 km
# MJD 59474.000000 (2021 Sep 17  0:00)
Change5
1 47097U 20087A   21259.99919926 +004G0LL9 -002A95MG -002F8RNKH 13991
2 47097                          +000444W9 +00054DAJ +0001JCT7     07

# Worst residual: 1.85 km
# MJD 59475.000000 (2021 Sep 18  0:00)
Change5
1 47097U 20087A   21260.99919926 +0058VB0K -000ZTW3Z -001YRYHUH 13991
2 47097                          +0002JLIQ +0005JWLW +00028NTU     06

# Worst residual: 3.12 km
# MJD 59476.000000 (2021 Sep 19  0:00)
Change5
1 47097U 20087A   21261.99919926 +005NUHEK +000CHZTQ -001D50DJH 13995
2 47097                          +0000XAWQ +0005KH91 +0002QC57     08

# Worst residual: 3.59 km
# MJD 59477.000000 (2021 Sep 20  0:00)
Change5
1 47097U 20087A   21262.99919926 +005P1MPJ +001NCKQR -000O78GIH 13997
2 47097                          -0000MNR1 +00057XJW +0003079F     02

# Worst residual: 3.28 km
# MJD 59478.000000 (2021 Sep 21  0:00)
Change5
1 47097U 20087A   21263.99919926 +005DDOHD +002TU7FV +00027DH5H 13993
2 47097                          -00021J4A +0004KIUV +00032NRY     06

# Worst residual: 2.47 km
# MJD 59479.000000 (2021 Sep 22  0:00)
Change5
1 47097U 20087A   21264.99919926 +004QAT3O +003TMFLM +000SDDWRH 13996
2 47097                          -00039JOQ +0003ODP6 +0002YBAQ     03

# Worst residual: 2.09 km
# MJD 59480.000000 (2021 Sep 23  0:00)
Change5
1 47097U 20087A   21265.99919926 +003TLMGY +004KTSIH +001GQJ8OH 13993
2 47097                          -00049J0H +0002LANB +0002NQBF     07

# Worst residual: 2.30 km
# MJD 59481.000000 (2021 Sep 24  0:00)
Change5
1 47097U 20087A   21266.99919926 +002PBPF1 +0051YSYW +0021UX8KH 13998
2 47097                          -00050IU6 +0001CPY0 +00027CEB     01

# Worst residual: 2.39 km
# MJD 59482.000000 (2021 Sep 25  0:00)
Change5
1 47097U 20087A   21267.99919926 +001FQZY9 +0057VAGB +002IDNOXH 13993
2 47097                          -0005HHTZ -000005XN +0001LEWL     02

# Worst residual: 2.22 km
# MJD 59483.000000 (2021 Sep 26  0:00)
Change5
1 47097U 20087A   21268.99919926 +0003G026 +0051MJH1 +002SZCQQH 13990
2 47097                          -0005MYXB -0001GBD0 +0000U17O     05

# Worst residual: 2.38 km
# MJD 59484.000000 (2021 Sep 27  0:00)
Change5
1 47097U 20087A   21269.99919926 -0018KGZ5 +004ILCWW +002WCXMFH 13992
2 47097                          -0005EJWP -0002YHOR -00002SNK     01

# Worst residual: 2.17 km
# MJD 59485.000000 (2021 Sep 28  0:00)
Change5
1 47097U 20087A   21270.99919926 -002GIVOP +003MIQQP +002R7T3GH 13991
2 47097                          -0004OD30 -0004GGCC -00014VUQ     08

# Worst residual: 1.51 km
# MJD 59486.000000 (2021 Sep 29  0:00)
Change5
1 47097U 20087A   21271.99919926 -003FIIFX +002DYV5V +002CEH0DH 13997
2 47097                          -0003AS0G -0005TBPB -0002B1G9     02

# Worst residual: 0.98 km
# MJD 59487.000000 (2021 Sep 30  0:00)
Change5
1 47097U 20087A   21272.99919926 -003Z62Z6 +000V8YJ3 +001NCBHZH 13995
2 47097                          -00013Q5F -0006QUT4 -0003H6LP     00

# Worst residual: 0.71 km
# MJD 59488.000000 (2021 Oct  1  0:00)
Change5
1 47097U 20087A   21273.99919926 -003W4XJZ -000RXYER +000P3MPWH 13998
2 47097                          +0001X999 -0006QZ31 -0004D7E6     06

# Worst residual: 0.62 km
# MJD 59489.000000 (2021 Oct  2  0:00)
Change5
1 47097U 20087A   21274.99919926 -0030Y7HF -00290RNU -000DXSNDH 13991
2 47097                          +00059DCJ -00059BVN -0004I3GY     06

# Worst residual: 0.52 km
# MJD 59490.000000 (2021 Oct  3  0:00)
Change5
1 47097U 20087A   21275.99919926 -001FWEJQ -0036HVWM -001DHCWSH 13992
2 47097                          +0007OFYD -0002B6JI -0003JN30     02

# Worst residual: 0.48 km
# MJD 59491.000000 (2021 Oct  4  0:00)
Change5
1 47097U 20087A   21276.99919926 +000I3HXU -003BTVU6 -0020X51SH 13991
2 47097                          +00086SNN +00010VWH -0001T6PN     02

# Worst residual: 0.46 km
# MJD 59492.000000 (2021 Oct  5  0:00)
Change5
1 47097U 20087A   21277.99919926 +002CQSX0 -002R3KTQ -0028NF98H 13996
2 47097                          +00071646 +0003LB9X -00000R4Y     00

# Worst residual: 0.51 km
# MJD 59493.000000 (2021 Oct  6  0:00)
Change5
1 47097U 20087A   21278.99919926 +003TD4FE -001P0IK4 -0022GHIWH 13999
2 47097                          +00052YLY +00051P5C +0001DGOH     08

